OBJECT_NAME,OBJECT_ID,EPOCH,MEAN_MOTION,ECCENTRICITY,INCLINATION,RA_OF_ASC_NODE,ARG_OF_PERICENTER,MEAN_ANOMALY,EPHEMERIS_TYPE,CLASSIFICATION_TYPE,NORAD_CAT_ID,ELEMENT_SET_NO,REV_AT_EPOCH,BSTAR,MEAN_MOTION_DOT,MEAN_MOTION_DDOT
STARLINK-5366,2023-015BC,2026-07-05T22:31:19.845696,15.27572837,.0001351,43.0037,31.5937,276.4757,83.5941,0,U,55499,999,18943,-.3023E-4,-.1094E-4,0
STARLINK-5141,2023-015BD,2026-07-05T23:28:41.739168,15.27570502,.0001571,43.0038,31.8934,267.2443,92.8229,0,U,55500,999,18868,-.38895E-5,-.369E-5,0
STARLINK-5367,2023-015BE,2026-07-05T23:49:03.101664,15.27570043,.000114,43.0032,31.9834,264.9375,95.1347,0,U,55501,999,18868,-.1398E-4,-.647E-5,0
STARLINK-5749,2023-020A,2026-07-06T01:32:40.767072,15.27569029,.00013009,43.0012,60.3515,268.3221,91.7482,0,U,55569,999,18804,-.27682782E-4,-.1023E-4,0
STARLINK-5737,2023-020B,2026-07-06T01:13:01.936704,15.27571693,.00013953,43.0030,56.8461,257.1344,102.9352,0,U,55570,999,18701,-.12906989E-4,-.617E-5,0
STARLINK-5739,2023-020C,2026-07-06T01:03:04.402944,15.27569395,.0001445,43.0056,60.2047,274.8187,85.2500,0,U,55571,999,18697,-.20354517E-4,-.822E-5,0
STARLINK-5732,2023-020D,2026-07-06T00:59:22.450848,15.27570129,.0001326,43.0053,60.1863,277.9702,82.0999,0,U,55572,999,18697,-.31672263E-4,-.1133E-4,0
STARLINK-5738,2023-020E,2026-07-06T00:53:48.633216,15.27572030,.00019892,43.0084,60.1591,276.3508,83.7117,0,U,55573,999,18697,.7177283E-5,-.65E-6,0
STARLINK-5747,2023-020F,2026-07-06T00:09:37.291968,15.27569732,.00012187,43.0017,60.7816,249.9724,110.0996,0,U,55574,999,18696,-.42618058E-4,-.1434E-4,0
STARLINK-5745,2023-020G,2026-07-06T20:02:12.755040,15.27564976,.0001392,43.0058,55.8190,270.1067,89.9625,0,U,55575,999,18709,-.53188E-4,-.1725E-4,0
STARLINK-5751,2023-020H,2026-07-05T23:52:40.830528,15.27464730,.00013241,43.0066,31.2909,301.9333,58.1390,0,U,55576,999,18730,-.26047998E-3,-.7397E-4,0
STARLINK-5752,2023-020J,2026-07-05T23:55:30.308448,15.27573410,.00012986,43.0016,57.2177,256.3494,103.7214,0,U,55577,999,18700,-.20533148E-4,-.827E-5,0
STARLINK-5754,2023-020L,2026-07-06T01:00:04.848192,15.27573332,.00012638,43.0044,56.7753,274.5865,85.4843,0,U,55579,999,18701,-.28214969E-4,-.1038E-4,0
STARLINK-5757,2023-020M,2026-07-05T22:33:13.224960,15.27564558,.00013238,43.0045,31.7364,266.6231,93.4470,0,U,55580,999,18729,-.47248522E-4,-.1561E-4,0
STARLINK-5753,2023-020N,2026-07-05T23:37:27.438240,15.27569833,.00012785,43.0041,64.0246,273.3272,86.7434,0,U,55581,999,18692,-.19603202E-4,-.801E-5,0
STARLINK-5741,2023-020P,2026-07-06T00:01:03.294048,15.27596183,.0001797,43.0053,46.0638,277.9114,82.1534,0,U,55582,999,18713,.26983276E-3,.7174E-4,0
STARLINK-5742,2023-020Q,2026-07-06T00:26:46.986432,15.27564977,.00005707,43.0046,56.6040,352.0420,8.0423,0,U,55583,999,18701,-.45155158E-4,-.1504E-4,0
STARLINK-5736,2023-020R,2026-07-06T00:17:44.346912,15.27563129,.00011044,43.0036,57.4149,274.8516,85.2209,0,U,55584,999,18700,-.69057675E-4,-.2161E-4,0
STARLINK-5769,2023-020S,2026-07-05T23:02:07.811232,15.27551151,.00016998,43.0029,46.6197,256.5705,103.4958,0,U,55585,999,18712,-.11591248E-3,-.3448E-4,0
STARLINK-5767,2023-020T,2026-07-05T23:53:40.428384,15.27574370,.000144,43.0026,57.2862,284.9915,75.0777,0,U,55586,999,18700,-.38933864E-4,-.1333E-4,0
STARLINK-5727,2023-020U,2026-07-05T22:10:14.752704,15.27573249,.0001413,43.0039,57.5344,264.4195,95.6495,0,U,55587,999,18699,.3824337E-5,-.157E-5,0
STARLINK-5728,2023-020V,2026-07-05T23:48:07.294176,15.27572897,.00013848,43.0027,57.2617,268.3021,91.7672,0,U,55588,999,18700,-.2527728E-4,-.957E-5,0
STARLINK-5697,2023-020W,2026-07-06T01:05:37.400928,15.27599126,.00018562,43.0041,56.8021,269.2350,90.8289,0,U,55589,999,18701,-.13608332E-3,-.4007E-4,0
STARLINK-5762,2023-020X,2026-07-06T00:56:22.877952,15.27564041,.00017395,43.0053,56.7612,275.4696,84.5957,0,U,55590,999,18701,-.33146553E-4,-.1174E-4,0
STARLINK-5760,2023-020Y,2026-07-05T23:42:34.556544,15.27569997,.00013617,43.0026,57.2326,262.7227,97.3470,0,U,55591,999,18700,.23208151E-4,.376E-5,0
STARLINK-5759,2023-020Z,2026-07-06T00:30:28.251648,15.27599328,.00011121,43.0032,56.6239,283.7584,76.3144,0,U,55592,999,18701,-.32055038E-3,-.9077E-4,0
STARLINK-5703,2023-020AA,2026-07-06T00:24:55.678176,15.27563263,.00010942,43.0043,56.5929,261.1856,98.8872,0,U,55593,999,18701,-.4905113E-4,-.1611E-4,0
STARLINK-5750,2023-020AB,2026-07-06T00:36:01.643328,15.27573420,.00020442,43.0061,56.6524,274.6030,85.4588,0,U,55594,999,18701,.1075988E-3,.2699E-4,0
STARLINK-5729,2023-020AD,2026-07-06T00:50:49.845696,15.27570615,.00013266,43.0048,56.7297,283.0280,77.0423,0,U,55596,999,18701,-.30024843E-4,-.1088E-4,0
STARLINK-5743,2023-020AE,2026-07-05T23:29:38.465088,15.27573012,.000169,43.0061,45.9100,268.8518,91.2140,0,U,55597,999,18713,-.55221E-7,-.264E-5,0
