STARLINK-5366           
1 55499U 23015BC  26186.93842414 -.00001094  00000+0 -30230-4 0  9998
2 55499  43.0037  31.5937 0001351 276.4757  83.5941 15.27572837189439
STARLINK-5141           
1 55500U 23015BD  26186.97826087 -.00000369  00000+0 -38895-5 0  9993
2 55500  43.0038  31.8934 0001571 267.2443  92.8229 15.27570502188682
STARLINK-5367           
1 55501U 23015BE  26186.99239701 -.00000647  00000+0 -13980-4 0  9993
2 55501  43.0032  31.9834 0001140 264.9375  95.1347 15.27570043188684
STARLINK-5749           
1 55569U 23020A   26187.06436073 -.00001023  00000+0 -27683-4 0  9997
2 55569  43.0012  60.3515 0001300 268.3221  91.7482 15.27569029188048
STARLINK-5737           
1 55570U 23020B   26187.05071686 -.00000617  00000+0 -12907-4 0  9994
2 55570  43.0030  56.8461 0001395 257.1344 102.9352 15.27571693187013
STARLINK-5739           
1 55571U 23020C   26187.04380096 -.00000822  00000+0 -20355-4 0  9996
2 55571  43.0056  60.2047 0001445 274.8187  85.2500 15.27569395186976
STARLINK-5732           
1 55572U 23020D   26187.04123207 -.00001133  00000+0 -31672-4 0  9996
2 55572  43.0053  60.1863 0001326 277.9702  82.0999 15.27570129186978
STARLINK-5738           
1 55573U 23020E   26187.03736844 -.00000065  00000+0  71773-5 0  9992
2 55573  43.0084  60.1591 0001989 276.3508  83.7117 15.27572030186976
STARLINK-5747           
1 55574U 23020F   26187.00668162 -.00001434  00000+0 -42618-4 0  9994
2 55574  43.0017  60.7816 0001218 249.9724 110.0996 15.27569732186963
STARLINK-5745           
1 55575U 23020G   26187.83486985 -.00001725  00000+0 -53188-4 0  9994
2 55575  43.0058  55.8190 0001392 270.1067  89.9625 15.27564976187091
STARLINK-5751           
1 55576U 23020H   26186.99491702 -.00007397  00000+0 -26048-3 0  9999
2 55576  43.0066  31.2909 0001324 301.9333  58.1390 15.27464730187309
STARLINK-5752           
1 55577U 23020J   26186.99687857 -.00000827  00000+0 -20533-4 0  9993
2 55577  43.0016  57.2177 0001298 256.3494 103.7214 15.27573410187006
STARLINK-5754           
1 55579U 23020L   26187.04172278 -.00001038  00000+0 -28215-4 0  9998
2 55579  43.0044  56.7753 0001263 274.5865  85.4843 15.27573332187017
STARLINK-5757           
1 55580U 23020M   26186.93973640 -.00001561  00000+0 -47249-4 0  9998
2 55580  43.0045  31.7364 0001323 266.6231  93.4470 15.27564558187292
STARLINK-5753           
1 55581U 23020N   26186.98434535 -.00000801  00000+0 -19603-4 0  9998
2 55581  43.0041  64.0246 0001278 273.3272  86.7434 15.27569833186921
STARLINK-5741           
1 55582U 23020P   26187.00073257  .00007174  00000+0  26983-3 0  9999
2 55582  43.0053  46.0638 0001797 277.9114  82.1534 15.27596183187134
STARLINK-5742           
1 55583U 23020Q   26187.01859938 -.00001504  00000+0 -45155-4 0  9995
2 55583  43.0046  56.6040 0000570 352.0420   8.0423 15.27564977187011
STARLINK-5736           
1 55584U 23020R   26187.01231883 -.00002161  00000+0 -69058-4 0  9997
2 55584  43.0036  57.4149 0001104 274.8516  85.2209 15.27563129187007
STARLINK-5769           
1 55585U 23020S   26186.95981263 -.00003448  00000+0 -11591-3 0  9991
2 55585  43.0029  46.6197 0001699 256.5705 103.4958 15.27551151187128
STARLINK-5767           
1 55586U 23020T   26186.99560681 -.00001333  00000+0 -38934-4 0  9995
2 55586  43.0026  57.2862 0001440 284.9915  75.0777 15.27574370187003
STARLINK-5727           
1 55587U 23020U   26186.92378186 -.00000157  00000+0  38243-5 0  9992
2 55587  43.0039  57.5344 0001413 264.4195  95.6495 15.27573249186995
STARLINK-5728           
1 55588U 23020V   26186.99175109 -.00000957  00000+0 -25277-4 0  9991
2 55588  43.0027  57.2617 0001384 268.3021  91.7672 15.27572897187006
STARLINK-5697           
1 55589U 23020W   26187.04557177 -.00004007  00000+0 -13608-3 0  9992
2 55589  43.0041  56.8021 0001856 269.2350  90.8289 15.27599126187015
STARLINK-5762           
1 55590U 23020X   26187.03915368 -.00001174  00000+0 -33147-4 0  9996
2 55590  43.0053  56.7612 0001739 275.4696  84.5957 15.27564041187017
STARLINK-5760           
1 55591U 23020Y   26186.98789996  .00000376  00000+0  23208-4 0  9994
2 55591  43.0026  57.2326 0001361 262.7227  97.3470 15.27569997187002
STARLINK-5759           
1 55592U 23020Z   26187.02116032 -.00009077  00000+0 -32055-3 0  9994
2 55592  43.0032  56.6239 0001112 283.7584  76.3144 15.27599328187016
STARLINK-5703           
1 55593U 23020AA  26187.01731109 -.00001611  00000+0 -49051-4 0  9993
2 55593  43.0043  56.5929 0001094 261.1856  98.8872 15.27563263187011
STARLINK-5750           
1 55594U 23020AB  26187.02501902  .00002699  00000+0  10760-3 0  9990
2 55594  43.0061  56.6524 0002044 274.6030  85.4588 15.27573420187015
STARLINK-5729           
1 55596U 23020AD  26187.03529914 -.00001088  00000+0 -30025-4 0  9996
2 55596  43.0048  56.7297 0001326 283.0280  77.0423 15.27570615187011
STARLINK-5743           
1 55597U 23020AE  26186.97891742 -.00000264  00000+0 -55221-7 0  9993
2 55597  43.0061  45.9100 0001690 268.8518  91.2140 15.27573012187130
